OBJECT_NAME,OBJECT_ID,EPOCH,MEAN_MOTION,ECCENTRICITY,INCLINATION,RA_OF_ASC_NODE,ARG_OF_PERICENTER,MEAN_ANOMALY,EPHEMERIS_TYPE,CLASSIFICATION_TYPE,NORAD_CAT_ID,ELEMENT_SET_NO,REV_AT_EPOCH,BSTAR,MEAN_MOTION_DOT,MEAN_MOTION_DDOT
JILIN-1 GAOFEN 03D15,2022-019R,2026-06-05T04:26:12.560640,16.25593962,.0011909,97.3587,254.0987,260.6940,99.3005,0,U,51839,999,23822,.9676E-3,.2892809E-1,.24426E-5
JILIN-1 GAOFEN 03D12,2022-019T,2026-06-04T13:42:03.354624,16.34228631,.00136366,97.3493,253.4173,262.3725,97.6023,0,U,51841,999,23813,.80359336E-3,.5427683E-1,.2485589E-5
2022-023F,2022-023F,2026-06-05T05:17:31.115328,15.18168900,.0128874,63.4460,314.1616,343.1610,16.5242,0,U,51951,999,23589,.78419E-3,.19856E-3,0
MERIDIAN 10,2022-030A,2026-06-04T00:14:43.732032,2.00615010,.6780054,62.6784,142.2055,272.8646,17.6775,0,U,52145,999,3076,0,.208E-5,0
OMNI-L1,2022-033A,2026-06-04T05:19:25.599648,14.82699297,.00044778,97.8393,234.6514,342.6299,17.4761,0,U,52157,999,22553,.32856214E-3,.2599E-4,0
ENMAP,2022-033C,2026-06-05T03:47:38.207904,14.74978161,.0001387,97.9792,238.5779,81.3607,278.7759,0,U,52159,999,22488,.10148E-3,.632E-5,0
ARCSAT-1,2022-033E,2026-06-04T05:49:18.938784,15.53290234,.00035768,97.2749,247.3261,231.4725,128.6209,0,U,52161,999,23369,.2369493E-3,.14842E-3,0
GLOBAL-18,2022-034B,2026-06-04T17:07:47.148960,15.45721175,.000364,52.9833,316.2293,212.0941,147.9843,0,U,52196,999,23503,.50474E-3,.24436E-3,0
GAOFEN-3 03,2022-035A,2026-06-05T05:27:15.893856,14.42212928,.0001034,98.4060,164.9812,95.1915,264.9393,0,U,52200,999,21912,-.32018E-4,-.149E-5,0
DAQI-1,2022-039A,2026-06-05T04:50:06.429120,14.57670642,.0002626,98.1488,95.3022,312.0190,48.0786,0,U,52257,999,22019,.11074E-3,.46E-5,0
BRO-6,2022-047AE,2026-06-05T04:41:33.595872,15.49709482,.0005805,97.3399,247.0281,116.5234,243.6613,0,U,52422,999,22929,.70542E-3,.39198E-3,0
JILIN-1 GAOFEN 3D27,2022-048B,2026-06-05T03:20:44.255904,15.72593710,.0002723,97.5701,269.0101,103.4520,256.7047,0,U,52444,999,22758,.92369E-3,.12503E-2,0
JILIN-1 GAOFEN 3D28,2022-048C,2026-06-05T02:19:23.807712,15.75189059,.0002089,97.5641,269.0688,143.4600,216.6807,0,U,52445,999,22762,.90273E-3,.136703E-2,0
VIGORIDE-3,2022-057AE,2026-06-04T23:08:39.441696,15.27146205,.0008874,97.6597,295.6171,158.7441,201.4167,0,U,52760,999,22329,.23966E-3,.6308E-4,0
ION SCV-006,2022-057AF,2026-06-05T04:25:20.284320,15.44981761,.0017988,97.6095,304.2341,154.4424,205.7717,0,U,52761,999,22426,.26258E-3,.12355E-3,0
SHERPA-AC1,2022-057AH,2026-06-03T07:44:29.503680,15.36058286,.00086669,97.6674,302.9744,135.8969,224.2967,0,U,52763,999,22357,.2357116E-3,.8201E-4,0
OMNI-L2,2022-057AR,2026-06-04T16:39:06.086016,14.81337073,.0006913,97.4719,218.8916,19.4558,340.6919,0,U,52771,999,21854,.23445E-3,.1784E-4,0
STEP CUBE LAB-II,2022-065D,2026-06-05T04:04:04.699776,14.63283740,.0009862,98.2218,300.1090,65.7999,294.4233,0,U,52897,999,20974,.19811E-3,.974E-5,0
RANDEV,2022-065E,2026-06-05T04:10:11.942112,14.63670666,.0009205,98.2201,300.4599,66.2786,293.9381,0,U,52898,999,20949,.21089E-3,.1049E-4,0
SNUGLITE-II,2022-065F,2026-06-02T19:38:11.355072,14.64318814,.00086986,98.2186,298.6759,72.9663,287.2492,0,U,52899,999,20889,.2267761E-3,.1149E-4,0
MIMAN,2022-065G,2026-06-04T04:19:23.200896,14.61829457,.00088235,98.2246,297.7293,70.9014,289.3142,0,U,52900,999,20854,.15449422E-3,.724E-5,0
STARLINK-4362,2022-077A,2026-06-05T00:53:42.286272,15.05678158,.0002488,97.4009,335.5190,96.8873,263.2637,0,U,53043,999,21405,-.41613E-3,-.6062E-4,0
LARES-2,2022-080A,2026-06-03T13:15:00.088704,6.38965171,.00053798,70.1655,310.0052,337.8766,22.1504,0,U,53105,999,9079,0,-.12E-6,0
GREENCUBE (IO-117),2022-080E,2026-06-01T11:09:37.753056,6.42583280,.00088692,70.1435,303.7143,293.3663,66.6064,0,U,53109,999,9105,0,-.3E-7,0
STARLINK-4410,2022-084R,2026-06-05T04:00:03.000096,15.26675798,.0001389,97.5999,217.0101,71.8178,285.9684,0,U,53204,999,573,.34724E-2,.9209E-3,0
COSMOS 2558,2022-089A,2026-06-05T01:36:03.140064,15.72686664,.0000879,97.2254,259.6595,164.4618,195.6674,0,U,53323,999,21592,.82599E-3,.112037E-2,0
TECMS,2022-090A,2026-06-05T04:31:15.500640,15.21322900,.0002249,97.3138,224.6369,223.1562,136.9498,0,U,53346,999,21298,.20464E-3,.4513E-4,0
DONGPO 02,2022-098J,2026-06-05T03:47:23.559648,15.72238841,.000106,97.5515,286.3271,333.7016,26.4192,0,U,53452,999,21290,.85043E-3,.113219E-2,0
