JILIN-1 GAOFEN 03D15    
1 51839U 22019R   26156.18486760  .02892809  24426-5  96760-3 0  9992
2 51839  97.3587 254.0987 0011909 260.6940  99.3005 16.25593962238220
JILIN-1 GAOFEN 03D12    
1 51841U 22019T   26155.57087216  .05427683  24856-5  80359-3 0  9991
2 51841  97.3493 253.4173 0013636 262.3725  97.6023 16.34228631238137
2022-023F               
1 51951U 22023F   26156.22049902  .00019856  00000+0  78419-3 0  9998
2 51951  63.4460 314.1616 0128874 343.1610  16.5242 15.18168900235892
MERIDIAN 10             
1 52145U 22030A   26155.01022838  .00000208  00000+0  00000+0 0  9995
2 52145  62.6784 142.2055 6780054 272.8646  17.6775  2.00615010 30760
OMNI-L1                 
1 52157U 22033A   26155.22182407  .00002599  00000+0  32856-3 0  9996
2 52157  97.8393 234.6514 0004477 342.6299  17.4761 14.82699297225533
ENMAP                   
1 52159U 22033C   26156.15808111  .00000632  00000+0  10148-3 0  9994
2 52159  97.9792 238.5779 0001387  81.3607 278.7759 14.74978161224889
ARCSAT-1                
1 52161U 22033E   26155.24258031  .00014842  00000+0  23695-3 0  9995
2 52161  97.2749 247.3261 0003576 231.4725 128.6209 15.53290234233690
GLOBAL-18               
1 52196U 22034B   26155.71374015  .00024436  00000+0  50474-3 0  9992
2 52196  52.9833 316.2293 0003640 212.0941 147.9843 15.45721175235030
GAOFEN-3 03             
1 52200U 22035A   26156.22726729 -.00000149  00000+0 -32018-4 0  9991
2 52200  98.4060 164.9812 0001034  95.1915 264.9393 14.42212928219123
DAQI-1                  
1 52257U 22039A   26156.20146330  .00000460  00000+0  11074-3 0  9991
2 52257  98.1488  95.3022 0002626 312.0190  48.0786 14.57670642220193
BRO-6                   
1 52422U 22047AE  26156.19552773  .00039198  00000+0  70542-3 0  9999
2 52422  97.3399 247.0281 0005805 116.5234 243.6613 15.49709482229299
JILIN-1 GAOFEN 3D27     
1 52444U 22048B   26156.13940111  .00125030  00000+0  92369-3 0  9997
2 52444  97.5701 269.0101 0002723 103.4520 256.7047 15.72593710227583
JILIN-1 GAOFEN 3D28     
1 52445U 22048C   26156.09680333  .00136703  00000+0  90273-3 0  9991
2 52445  97.5641 269.0688 0002089 143.4600 216.6807 15.75189059227629
VIGORIDE-3              
1 52760U 22057AE  26155.96434539  .00006308  00000+0  23966-3 0  9993
2 52760  97.6597 295.6171 0008874 158.7441 201.4167 15.27146205223295
ION SCV-006             
1 52761U 22057AF  26156.18426255  .00012355  00000+0  26258-3 0  9991
2 52761  97.6095 304.2341 0017988 154.4424 205.7717 15.44981761224264
SHERPA-AC1              
1 52763U 22057AH  26154.32256370  .00008201  00000+0  23571-3 0  9996
2 52763  97.6674 302.9744 0008666 135.8969 224.2967 15.36058286223575
OMNI-L2                 
1 52771U 22057AR  26155.69382044  .00001784  00000+0  23445-3 0  9993
2 52771  97.4719 218.8916 0006913  19.4558 340.6919 14.81337073218546
STEP CUBE LAB-II        
1 52897U 22065D   26156.16949884  .00000974  00000+0  19811-3 0  9997
2 52897  98.2218 300.1090 0009862  65.7999 294.4233 14.63283740209743
RANDEV                  
1 52898U 22065E   26156.17374933  .00001049  00000+0  21089-3 0  9990
2 52898  98.2201 300.4599 0009205  66.2786 293.9381 14.63670666209491
SNUGLITE-II             
1 52899U 22065F   26153.81818698  .00001149  00000+0  22678-3 0  9996
2 52899  98.2186 298.6759 0008698  72.9663 287.2492 14.64318814208890
MIMAN                   
1 52900U 22065G   26155.18012964  .00000724  00000+0  15449-3 0  9999
2 52900  98.2246 297.7293 0008823  70.9014 289.3142 14.61829457208545
STARLINK-4362           
1 53043U 22077A   26156.03729498 -.00006062  00000+0 -41613-3 0  9998
2 53043  97.4009 335.5190 0002488  96.8873 263.2637 15.05678158214052
LARES-2                 
1 53105U 22080A   26154.55208436 -.00000012  00000+0  00000+0 0  9999
2 53105  70.1655 310.0052 0005379 337.8766  22.1504  6.38965171 90790
GREENCUBE (IO-117)      
1 53109U 22080E   26152.46502029 -.00000003  00000+0  00000+0 0  9996
2 53109  70.1435 303.7143 0008869 293.3663  66.6064  6.42583280 91055
STARLINK-4410           
1 53204U 22084R   26156.16670139  .00092090  00000+0  34724-2 0  9994
2 53204  97.5999 217.0101 0001389  71.8178 285.9684 15.26675798  5732
COSMOS 2558             
1 53323U 22089A   26156.06670301  .00112037  00000+0  82599-3 0  9999
2 53323  97.2254 259.6595 0000879 164.4618 195.6674 15.72686664215920
TECMS                   
1 53346U 22090A   26156.18837385  .00004513  00000+0  20464-3 0  9998
2 53346  97.3138 224.6369 0002249 223.1562 136.9498 15.21322900212981
DONGPO 02               
1 53452U 22098J   26156.15791157  .00113219  00000+0  85043-3 0  9995
2 53452  97.5515 286.3271 0001060 333.7016  26.4192 15.72238841212901
